full_name,street,city,state,zip
Leeann Baldazzi,Farragut,Tacoma,Washington,98464
Jourdain Guiso,Summit,Fort Lauderdale,Florida,33330
Nicolea Oxby,Summit,New York City,New York,10170
Christalle Delaprelle,Division,Orlando,Florida,32819
Garrick Gillan,Di Loreto,Brooklyn,New York,11231
Rodrique McRonald,Butterfield,White Plains,New York,10606
Phyllida Coxwell,Dawn,Albany,New York,12222
Farah Meaden,Sugar,Fort Wayne,Indiana,46825
Mick Feaver,Schurz,Washington,District of Columbia,20470
Mindy Lippett,Loomis,Miami,Florida,33158
Elisa Rillatt,Hintze,Denver,Colorado,80270
Sunny Faas,Burning Wood,New York City,New York,10249
Natalie Purshouse,Becker,Greenville,South Carolina,29605
Carline Boddington,Jackson,Saint Louis,Missouri,63116
Dede Kupke,Dwight,Port Charlotte,Florida,33954
Ginger Bissiker,Hanover,Alexandria,Virginia,22301
Vyky Gennerich,Shopko,San Francisco,California,94164
Gilberte Sandlin,Village,Phoenix,Arizona,85099
Cathrin Barkess,Clarendon,Montgomery,Alabama,36114
Ellissa Houlworth,Katie,San Francisco,California,94147
John Orris,Monica,Bloomington,Illinois,61709
Claus Gravenor,Randy,Lexington,Kentucky,40586
Sinclair Naulty,Springview,Dallas,Texas,75387
Kathi Eddies,Lotheville,Montgomery,Alabama,36134
Zahara Mundell,Clove,Phoenix,Arizona,85040
Stanislas Dell,Hansons,Bakersfield,California,93399
Ethel Coghlan,Armistice,Stockton,California,95210
Betsy McCard,Northridge,Lancaster,Pennsylvania,17622
Valene Steger,Esker,Waterbury,Connecticut,06705
Pyotr Greenhowe,Eagle Crest,Sacramento,California,94263
Rhodie Radleigh,Meadow Vale,Hicksville,New York,11854
Ethelred Valentinuzzi,Basil,Naples,Florida,34114
Mahmud Clineck,Steensland,Anchorage,Alaska,99599
Sloane Capron,Fremont,Topeka,Kansas,66617
Gannie Arnke,Luster,Tampa,Florida,33610
Griselda Wapple,Homewood,Billings,Montana,59105
Chandal Boltwood,Nevada,Phoenix,Arizona,85040
Jocelyne Newson,Forest Run,Santa Ana,California,92705
Mellisent Fogarty,Maple,Louisville,Kentucky,40266
Shalna Halvosen,Sugar,Sacramento,California,94230
Ethelyn Petegrew,Weeping Birch,Montgomery,Alabama,36125
Hillyer Dunkley,Clove,Long Beach,California,90805
Jojo Emanuel,Troy,Oklahoma City,Oklahoma,73104
Athene Kix,High Crossing,Washington,District of Columbia,20310
Caren Tarpey,Cordelia,Corpus Christi,Texas,78465
Casar Pampling,Bultman,Charleston,West Virginia,25326
Marcelo Shillington,Trailsway,Mobile,Alabama,36689
Englebert Schirach,Debra,Bronx,New York,10454
Jessamine Woodyer,Oakridge,Silver Spring,Maryland,20910
Donal Meak,Cottonwood,Denver,Colorado,80223
Godwin Follis,Oriole,Kansas City,Kansas,66105
Bettine Daines,Garrison,Oxnard,California,93034
Lynde Lemme,Sachtjen,Minneapolis,Minnesota,55402
Bili Rochford,Gale,Grand Rapids,Michigan,49560
North Franzonello,Glendale,Washington,District of Columbia,20041
Dolli Greasley,American Ash,Milwaukee,Wisconsin,53210
Erskine Liversedge,Dovetail,Colorado Springs,Colorado,80935
Chane McQuode,Grasskamp,Murfreesboro,Tennessee,37131
Ashleigh Geck,Arrowood,Decatur,Illinois,62525
Codie Druce,Shasta,Saint Petersburg,Florida,33742
Fleurette Olczyk,Granby,Phoenix,Arizona,85062
Lebbie Cothey,Express,Charlotte,North Carolina,28235
Babbette Rosgen,Blaine,Orlando,Florida,32819
Lea Fattori,Petterle,Louisville,Kentucky,40233
Trish Weavers,Vermont,Newark,New Jersey,07188
Nesta Wingrove,Lindbergh,El Paso,Texas,88535
Cleon Matushevitz,Surrey,Oakland,California,94605
Nevins Blind,Helena,San Jose,California,95160
Lovell Welch,Ryan,Saint Louis,Missouri,63121
Henrieta Woodhead,Roth,Portland,Oregon,97216
Denys Tomaello,Dennis,New York City,New York,10105
Kellie Waller,Vermont,Appleton,Wisconsin,54915
Olympie Emett,Dorton,Gastonia,North Carolina,28055
Che Fitchew,Dennis,Washington,District of Columbia,20430
Hester Fellona,Onsgard,Atlanta,Georgia,30328
Aline Peplaw,8th,Louisville,Kentucky,40233
Matelda Ruppelin,Johnson,Louisville,Kentucky,40298
Stanislaus Ashcroft,Green Ridge,Roanoke,Virginia,24020
Consuelo Sottell,Brown,Bonita Springs,Florida,34135
Rachele Learoid,Briar Crest,San Francisco,California,94105
Dee dee Tofpik,Vidon,Virginia Beach,Virginia,23459
Ichabod Sawkin,Sherman,Boise,Idaho,83727
Evangelia Wandrack,Hermina,Tyler,Texas,75705
Ellen Kisbee,Sycamore,Greensboro,North Carolina,27499
Gal McPeck,Dryden,Carlsbad,California,92013
Willow Sitwell,Corry,Augusta,Georgia,30905
Catriona Meier,Washington,Spring,Texas,77386
Laure Bertin,Little Fleur,Saginaw,Michigan,48604
Arvie Pryce,Truax,Lexington,Kentucky,40586
Kara-lynn Hedaux,Esker,Palm Bay,Florida,32909
Toddie Kilgrew,Stephen,Grand Rapids,Michigan,49505
Tatiania Buff,Mosinee,Boston,Massachusetts,02119
Ebony Scanterbury,Roth,Santa Clara,California,95054
Rafaello McSkin,Delladonna,Dallas,Texas,75226
Franklyn Gulberg,Cascade,Charleston,West Virginia,25326
Janel Cranmer,Lawn,Dallas,Texas,75287
Alla Beining,Spohn,Brea,California,92822
Brett Eccleshall,Waubesa,Topeka,Kansas,66606
Peyton McSkeagan,Dovetail,Amarillo,Texas,79182
Sybyl Henryson,Chinook,Corona,California,92878
Angy Groarty,Pankratz,Las Vegas,Nevada,89160
Janek Blinder,Pleasure,Duluth,Georgia,30096
Micaela Paddeley,Talmadge,Monroe,Louisiana,71208
Fern Reburn,Melody,Arlington,Virginia,22212
Ronnie Spreull,Sauthoff,Fresno,California,93726
Gladys Blanpein,Lakeland,Portland,Oregon,97206
Bond Ubsdell,Mifflin,Cincinnati,Ohio,45228
Benton Pacher,Duke,San Antonio,Texas,78235
Daven Lowder,Banding,Carol Stream,Illinois,60351
Anthe Howkins,Anderson,Houston,Texas,77245
Audie Hirthe,Village,Albany,New York,12232
Hadrian Condy,Declaration,Louisville,Kentucky,40215
Randolph Morecombe,Lawn,Virginia Beach,Virginia,23471
Ingar Fullilove,Duke,Roanoke,Virginia,24040
Brandy Samart,Eastlawn,Charleston,West Virginia,25305
Keene Trevascus,Kim,Raleigh,North Carolina,27605
Regen Sybe,Holy Cross,Atlanta,Georgia,31106
Herc Kalderon,Briar Crest,Boulder,Colorado,80310
Brade Easson,Anthes,Albany,New York,12210
Adda Olander,Little Fleur,Springfield,Missouri,65810
Tabatha Barriball,Reindahl,Chicago,Illinois,60609
Eziechiele Dunican,Old Gate,Charlotte,North Carolina,28284
Miran Dodgshon,Pepper Wood,Winston Salem,North Carolina,27150
Laurel Gosnold,Helena,Richmond,Virginia,23260
Tommy MacRonald,Stang,Denver,Colorado,80228
Dedra Bour,Manley,Bozeman,Montana,59771
Aleece Cottell,Fisk,Columbus,Ohio,43220
Nessi Daid,Bartelt,Alexandria,Virginia,22309
Alexandrina Ert,Pierstorff,Kansas City,Missouri,64193
Jinny Rehn,Logan,New York City,New York,10270
Jolynn Heartfield,Buena Vista,Peoria,Illinois,61651
Jaime Sally,Dryden,Little Rock,Arkansas,72204
Eartha Dallimore,Nevada,Honolulu,Hawaii,96810
Correy Tatterton,Ramsey,Crawfordsville,Indiana,47937
Harli Cawtheray,Anderson,Las Vegas,Nevada,89150
Edmon Eddies,Dawn,Jacksonville,Florida,32215
Robin Loughead,Oneill,Orlando,Florida,32825
Darcee Crumpton,Erie,Houston,Texas,77206
Vivian Meneghelli,Main,Denver,Colorado,80299
Norma Trime,Mcbride,Garland,Texas,75044
Leonardo Colafate,Esker,Carlsbad,California,92013
Hernando Delgardo,Kipling,Hartford,Connecticut,06145
Sibella Dunk,Delaware,Richmond,Virginia,23242
Lona Ryland,Saint Paul,White Plains,New York,10606
Darleen Haw,Merrick,Roanoke,Virginia,24024
Tadeas Zini,Mitchell,San Francisco,California,94169
Lowell Verrechia,Village,Maple Plain,Minnesota,55572
Toni Bolus,Canary,Wilmington,North Carolina,28410
Smith Youson,Golf Course,New Orleans,Louisiana,70116
Franchot Scotson,American Ash,Lexington,Kentucky,40576
Matthias Wickey,Service,San Antonio,Texas,78240
Suzi Davinet,Sutherland,Redwood City,California,94064
Iago Dunthorn,Hintze,New York City,New York,10292
Montgomery Hatcher,Nevada,Augusta,Georgia,30911
Madel Kalkofen,Lotheville,Washington,District of Columbia,20397
Breanne Niven,Spohn,Houston,Texas,77090
Carmelina Turnor,Arizona,Lexington,Kentucky,40586
Kriste Grouen,Macpherson,Bronx,New York,10459
Raeann Jickles,Springview,San Francisco,California,94110
Chrissie Vidgen,Hudson,Winter Haven,Florida,33884
Cathi Grabert,Aberg,Albany,New York,12227
Kile Disbrow,Almo,Seattle,Washington,98195
Addie Shervil,Scoville,Waterbury,Connecticut,06705
Anderson Coult,Golden Leaf,Sacramento,California,94291
Minne Parade,Sachtjen,Topeka,Kansas,66606
Damon Quartley,Hoard,San Antonio,Texas,78230
Lacey Baudinet,Roth,Washington,District of Columbia,20073
Letizia Pascow,Aberg,Wichita,Kansas,67230
Dru Redmille,Little Fleur,Phoenix,Arizona,85077
Mil Piele,Elka,Amarillo,Texas,79165
Malina Spincks,Homewood,Wichita,Kansas,67230
Kip Redfern,Claremont,Herndon,Virginia,22070
Jeannie Blaker,Crest Line,Pasadena,Texas,77505
Hollie Cropp,Pine View,Fort Worth,Texas,76121
Arlin Davidovic,Manitowish,Austin,Texas,78759
Murial Chafney,3rd,Miami,Florida,33111
Janina Anslow,Muir,Atlanta,Georgia,31106
Muffin Gaylard,Talisman,Littleton,Colorado,80127
Gene Arnopp,Crest Line,Camden,New Jersey,08104
Katerine Tomenson,Main,Kansas City,Kansas,66105
Frederica Topham,Mayfield,Boise,Idaho,83716
Uriel Fetter,Raven,Syracuse,New York,13251
Dolli Reiach,Pond,Brooklyn,New York,11241
Rudolf Manger,Bashford,Baton Rouge,Louisiana,70883
Malanie Milton-White,Michigan,Glendale,Arizona,85305
Lezley Belderfield,Nelson,Columbus,Ohio,43204
Lizbeth Cheine,Saint Paul,Huntington Beach,California,92648
Chrystal Blade,Carberry,Portland,Oregon,97240
Nickolas Burrel,Jay,Miami,Florida,33147
Opalina Manners,Mifflin,Houston,Texas,77240
Katherine Cuningham,Dakota,Birmingham,Alabama,35285
Catha Claxton,Parkside,Spokane,Washington,99252
Jackson Gaiter,Rowland,Kansas City,Missouri,64136
Hallsy Lornsen,Straubel,East Saint Louis,Illinois,62205
Stacey Carnie,Riverside,Punta Gorda,Florida,33982
Dan Fradgley,Schurz,Columbus,Mississippi,39705
Tait Benedetti,Messerschmidt,Hampton,Virginia,23663
Adelaida Cotes,Briar Crest,Staten Island,New York,10305
Danni Wyer,Badeau,Miami,Florida,33129
Tana Davidsen,Raven,Albany,New York,12210
Darell Standing,Leroy,Billings,Montana,59105
Gideon Rabbe,Bowman,Cincinnati,Ohio,45271
Judon Christoffels,Jana,Fort Worth,Texas,76121
Koralle Ganter,Sachs,Santa Monica,California,90410
Babs MacKnocker,Thompson,Amarillo,Texas,79171
Tomkin Ferminger,Esker,Lexington,Kentucky,40581
Avrit Shubotham,Armistice,Arlington,Texas,76004
Emilee Callis,Quincy,Miami,Florida,33196
Babbette Stickins,High Crossing,Tacoma,Washington,98442
Anestassia Megany,Weeping Birch,Tulsa,Oklahoma,74103
Rik Weight,Forest Dale,Irvine,California,92710
Grove McGroarty,Red Cloud,Laurel,Maryland,20709
Grady Leinweber,Golf View,Charleston,West Virginia,25326
Breanne Kennermann,Karstens,Saint Louis,Missouri,63126
Yolanda Fould,Pankratz,Saint Paul,Minnesota,55188
Susann Laborda,Aberg,Sarasota,Florida,34238
Wernher McIntosh,Loomis,Killeen,Texas,76544
Margalo Giannoni,Sherman,Miami,Florida,33283
Vanny Dowey,Southridge,Long Beach,California,90847
Doralynne Delyth,Canary,Albuquerque,New Mexico,87195
Korry McDonough,Pawling,Gilbert,Arizona,85297
Modesty Delacote,West,San Antonio,Texas,78215
Jo-anne Ealden,Sunbrook,Memphis,Tennessee,38126
Lorine Deshon,Laurel,Augusta,Georgia,30905
Torrence Gypps,Marcy,Washington,District of Columbia,20525
Tracey Bending,Lunder,Reading,Pennsylvania,19610
Malena McParland,Waubesa,Arlington,Texas,76016
Kermy Kleszinski,Mallard,Vero Beach,Florida,32964
Delly Lye,Arrowood,Bellevue,Washington,98008
Seline Poile,Bunker Hill,Indianapolis,Indiana,46226
Aida Inett,Anthes,Houston,Texas,77212
Tadd Pond-Jones,Northridge,Daytona Beach,Florida,32123
Woodrow Phython,Banding,Bradenton,Florida,34282
Amalle Rotham,Pierstorff,Richmond,Virginia,23225
Fletch Willimott,2nd,Gaithersburg,Maryland,20883
Stanislas Guynemer,Kedzie,Valdosta,Georgia,31605
Tobe Kuhnt,Lerdahl,Miami,Florida,33261
Evy Hoovart,Vahlen,Paterson,New Jersey,07544
Gene Overstall,Portage,Ridgely,Maryland,21684
Felike Iacobini,Anhalt,Gainesville,Florida,32605
Harrie Halpen,Rutledge,Knoxville,Tennessee,37914
Harwell Dyka,Main,Charleston,West Virginia,25356
Ame Gounet,Moulton,Wilkes Barre,Pennsylvania,18768
Linn Jacquot,Hazelcrest,Reno,Nevada,89550
Lynn Agus,Oriole,Des Moines,Iowa,50362
Roderick Tayloe,Judy,Hampton,Virginia,23663
Tracey Winks,Pearson,Syracuse,New York,13210
Thoma Beardsall,3rd,Fort Lauderdale,Florida,33355
Barnabas Filon,Golf View,Huntsville,Alabama,35805
Allis Zellick,Anderson,Fort Worth,Texas,76129
Nikola Lerohan,Pepper Wood,New Haven,Connecticut,06505
Deny Tofpik,Mallory,Columbus,Georgia,31998
Yasmeen Gillison,Oak Valley,Canton,Ohio,44720
Noach Dannell,Bowman,Cleveland,Ohio,44105
Nevile Quare,Hansons,Indianapolis,Indiana,46247
Rona Blaisdale,Rutledge,Portland,Oregon,97201
Jo Croom,Manley,Worcester,Massachusetts,01654
Camella Corro,Clarendon,Tallahassee,Florida,32309
Jamal Gillings,Lyons,Garden Grove,California,92844
Berti Westgate,Fallview,Washington,District of Columbia,20220
Esra Salkild,Dorton,Chicago,Illinois,60636
Aila Blowne,Lerdahl,Pompano Beach,Florida,33064
Benyamin Camili,Kenwood,Augusta,Georgia,30905
Dimitry Lieber,Meadow Ridge,Schenectady,New York,12325
Celene Poulney,Rieder,Wilkes Barre,Pennsylvania,18768
Bertina Bryning,Oak,Huntington,West Virginia,25721
Colene Amesbury,Leroy,Rochester,New York,14652
Mei Betje,Nobel,Johnson City,Tennessee,37605
Sutton Eliasson,Milwaukee,Des Moines,Iowa,50362
Abey Birdwistle,Ruskin,Buffalo,New York,14233
Barbee Metzig,Dovetail,Louisville,Kentucky,40250
Konstance Kydd,Texas,Atlanta,Georgia,30358
Beauregard Segoe,Northridge,Washington,District of Columbia,20520
Torin Canario,Glacier Hill,San Francisco,California,94132
Wanda Holtaway,Grasskamp,Orlando,Florida,32830
Griselda Lucas,Mockingbird,Richmond,Virginia,23277
Lee Younge,Waubesa,Albuquerque,New Mexico,87180
Mirabelle Counsell,Scofield,Trenton,New Jersey,08650
Ignazio Snowsill,Redwing,Chicago,Illinois,60604
Eddi Mattedi,Knutson,Portland,Oregon,97232
Giralda Mcall,Kedzie,Omaha,Nebraska,68105
Katherina Lewzey,5th,Washington,District of Columbia,20337
Yettie Welbrock,Elmside,Omaha,Nebraska,68134
Maxine Gareisr,Del Mar,Minneapolis,Minnesota,55446
Kristopher Santus,Chinook,Champaign,Illinois,61825
Kyla Murison,Memorial,Shreveport,Louisiana,71137
Poppy Roofe,Westend,Waterbury,Connecticut,06721
Lemar Fysh,Westerfield,Riverside,California,92519
Cariotta Minguet,Darwin,Atlanta,Georgia,30323
Alfons Shorten,Bunting,Los Angeles,California,90005
Guinna Guye,Southridge,Fairbanks,Alaska,99709
Kesley Lerwill,Oakridge,Tampa,Florida,33625
Eolanda De Giorgio,Waywood,Irving,Texas,75062
Magdalen Turnpenny,Debra,Kissimmee,Florida,34745
Kenton Edrich,Del Sol,Sioux Falls,South Dakota,57193
Tomasina Twitchings,Di Loreto,Inglewood,California,90398
Barton Bilovsky,Rigney,Pocatello,Idaho,83206
Sharona Edrich,Erie,Shreveport,Louisiana,71105
Abba Wreight,Gerald,Omaha,Nebraska,68179
Alejandro Woolnough,Nelson,Sacramento,California,95833
Benny Northing,Talisman,Lees Summit,Missouri,64082
Winifred Mingo,Service,Lexington,Kentucky,40505
Kendre Giovanizio,Moland,Nashville,Tennessee,37228
Sax Bulcock,Grover,Phoenix,Arizona,85020
Madella Sharpus,Menomonie,Fort Myers,Florida,33906
Ellyn Babonau,Shoshone,Fort Wayne,Indiana,46814
Cchaddie Heape,Macpherson,Kansas City,Kansas,66112
Gertie Hedge,Packers,Austin,Texas,78759
Gideon Kinnach,High Crossing,Saint Paul,Minnesota,55172
Travis Botly,Meadow Ridge,Marietta,Georgia,30061
Sianna Rosindill,Pawling,Worcester,Massachusetts,01654
Natale Hayne,Mcbride,Canton,Ohio,44710
Lek Bulfoot,Milwaukee,North Las Vegas,Nevada,89087
Yoshiko Foye,Green,Sunnyvale,California,94089
Alphard Burroughes,Jackson,Midland,Texas,79705
Coraline Teffrey,Valley Edge,North Las Vegas,Nevada,89087
Errick Whiteway,Mitchell,Washington,District of Columbia,20299
Thane Skeath,Towne,Melbourne,Florida,32941
Charline Tunn,Warner,Huntsville,Texas,77343
Pacorro Persich,East,Billings,Montana,59112
Filip Rollings,Lakewood,Pasadena,California,91117
Yolande Opfer,Merchant,Fort Wayne,Indiana,46852
Tabby Such,Del Mar,Sacramento,California,94250
Noak Josland,Sherman,Pompano Beach,Florida,33075
Crystie Stimson,Talmadge,Houston,Texas,77293
Francklyn Jahnisch,Butterfield,Corpus Christi,Texas,78415
Randall Golsworthy,Anhalt,Hartford,Connecticut,06105
Josefina Shearsby,Ridgeway,Yonkers,New York,10705
Murvyn Abotson,Talmadge,Denver,Colorado,80249
Myrlene Danby,Dovetail,San Jose,California,95113
Ber Britney,Sauthoff,Aurora,Colorado,80045
Pablo Boulde,Mesta,Oklahoma City,Oklahoma,73119
Irvin Tryme,Arkansas,Bethlehem,Pennsylvania,18018
Gilberto Burstowe,Bluestem,Camden,New Jersey,08104
Tanner Brooking,Tennessee,Kansas City,Kansas,66112
Marta Bertwistle,Roxbury,Denver,Colorado,80279
Franzen Pittendreigh,Monica,Mountain View,California,94042
Fidel Raftery,Old Shore,Grand Rapids,Michigan,49560
Yuri Henrych,Eagan,Brooksville,Florida,34605
Eveline Okill,Mosinee,San Antonio,Texas,78220
Orella Pepi,Amoth,Clearwater,Florida,34615
Beverley Nelius,Sycamore,Boston,Massachusetts,02283
Rayna Pettigrew,Hallows,Sacramento,California,94207
Celka Gradly,Tennyson,Dayton,Ohio,45408
Ricki Larraway,Heffernan,Peoria,Illinois,61656
Ajay Callf,Toban,Shawnee Mission,Kansas,66220
Cissy Benasik,5th,Salt Lake City,Utah,84152
Cecil Ruppertz,Bunting,Sarasota,Florida,34238
Dion Farryn,Surrey,Grand Junction,Colorado,81505
Kathryne Nicklin,Hazelcrest,Des Moines,Iowa,50320
Ediva Pehrsson,Sycamore,Lexington,Kentucky,40510
Wilton Heinecke,Gale,Lancaster,California,93584
Candida Puller,Summit,New York City,New York,10165
Amandi Hoggan,Hanson,Appleton,Wisconsin,54915
Vladamir Sommerly,Atwood,Hartford,Connecticut,06105
Royal Bucke,2nd,New Orleans,Louisiana,70154
Martino Tschierse,Waywood,Winston Salem,North Carolina,27116
Andreana Battaille,Tony,Schaumburg,Illinois,60193
Costanza Kiffe,8th,San Diego,California,92176
Marena Pipkin,Bluejay,Cleveland,Ohio,44118
Dora Normandale,Dennis,Champaign,Illinois,61825
Umeko Montford,Quincy,Rochester,New York,14609
Davina Esch,Florence,Jacksonville,Florida,32209
Kirby Baskeyfied,Lotheville,Orlando,Florida,32813
Helga Duckhouse,Mesta,Minneapolis,Minnesota,55470
Lavinia Jackson,Thompson,Garden Grove,California,92844
Lock Swadlinge,Crest Line,Portland,Oregon,97229
Isabelle Carnell,Banding,San Luis Obispo,California,93407
Clary Ruffle,Moulton,Hampton,Virginia,23668
Ardis Squibb,Farmco,San Francisco,California,94137
Alonzo Padden,Buhler,Birmingham,Alabama,35295
Alessandro Athey,Granby,Boston,Massachusetts,02283
Petronella Pester,Lindbergh,Pensacola,Florida,32505
Andrea Brockington,Tony,Washington,District of Columbia,20029
Burnaby Tibbles,East,Winston Salem,North Carolina,27150
Janel Vuitte,Nobel,San Francisco,California,94137
Sella Millson,Pierstorff,Visalia,California,93291
Elly Rudgerd,Express,Bronx,New York,10454
Isaak Kiehl,Farmco,Mobile,Alabama,36628
Johann Sinclar,Donald,Pocatello,Idaho,83206
Archibaldo Picardo,Lotheville,Baltimore,Maryland,21239
Shoshana Wayland,Bay,Los Angeles,California,90094
Kassi Vila,Dennis,Jackson,Mississippi,39204
Chadd Gorbell,Gulseth,Ashburn,Virginia,22093
Elyssa Halm,Artisan,Dallas,Texas,75236
Giustina Jephson,Fairfield,Pompano Beach,Florida,33064
Lanny Stolberger,Ramsey,Phoenix,Arizona,85072
Clemence Iddons,Jenifer,Saint Cloud,Minnesota,56398
Maxi Laville,Burning Wood,Philadelphia,Pennsylvania,19131
Anstice Bertin,Sutteridge,Seattle,Washington,98166
Klemens Spottiswood,Sycamore,Boston,Massachusetts,02114
Tracy Dudill,Norway Maple,Washington,District of Columbia,20425
Clovis Leathes,Grayhawk,Little Rock,Arkansas,72222
Sissie Cockrill,Calypso,Chicago,Illinois,60624
Belita Copelli,Gateway,Nashville,Tennessee,37245
Jamima Baff,Straubel,Des Moines,Iowa,50393
Kendrick Ketchell,Forster,Wilmington,Delaware,19810
Donovan Guiver,Steensland,Fort Wayne,Indiana,46805
Jorie Ashpole,Carioca,Bradenton,Florida,34282
Jillian Portwaine,Kenwood,Albany,New York,12205
Laughton Scales,Oneill,Alexandria,Virginia,22313
Ashley Gainfort,Longview,Charleston,West Virginia,25321
Wendie Olensby,Lindbergh,Albuquerque,New Mexico,87201
Mac Threlkeld,Crowley,Mesa,Arizona,85210
Keelia Yarnton,Maple Wood,Salt Lake City,Utah,84152
Pattin McNirlin,Raven,Houston,Texas,77212
Patrizio Abramovitz,Tennessee,Macon,Georgia,31217
Bevvy Sterke,Fordem,Wilmington,Delaware,19892
Fredericka Szabo,American,Chattanooga,Tennessee,37405
Maybelle Banisch,Summer Ridge,Erie,Pennsylvania,16550
Ardis Swate,Aberg,Milwaukee,Wisconsin,53277
Dell Blackly,Fieldstone,Sacramento,California,94263
Maritsa Dalli,Utah,Colorado Springs,Colorado,80995
Hildagarde Keuneke,Jackson,Houston,Texas,77065
Aridatha Farmer,Clemons,Independence,Missouri,64054
Melva Childes,Crowley,Independence,Missouri,64054
Lorenza Senyard,John Wall,Hagerstown,Maryland,21747
Hebert Sich,Northwestern,Tampa,Florida,33686
Torrie Polo,Walton,Washington,District of Columbia,20546
Rose Stickles,Butterfield,Madison,Wisconsin,53716
Crystie Crichmere,Shopko,Arlington,Virginia,22225
Rad Jolliff,Sutherland,Lexington,Kentucky,40524
Garrik Lytell,Butterfield,Boise,Idaho,83727
Leanna Reilly,Pond,Erie,Pennsylvania,16550
Thorn Turbill,Reinke,Boston,Massachusetts,02114
Morey Pillington,Bay,Chicago,Illinois,60697
Burg Eassom,Forest,Charlotte,North Carolina,28225
Alejandrina Dudman,Towne,Cambridge,Massachusetts,02142
Joby Neylan,Morningstar,Sacramento,California,94273
Koral Bourdis,Utah,San Diego,California,92196
Katerine Liveley,Northland,Louisville,Kentucky,40250
Stepha Coffee,Lakewood Gardens,Springfield,Illinois,62718
Belle Duffree,Roxbury,Peoria,Illinois,61635
Yancy Butteris,Truax,Worcester,Massachusetts,01605
Shela Callington,Packers,New York City,New York,10105
Mike Dunseath,Monument,Austin,Texas,78721
Georg O' Clovan,Russell,Brooklyn,New York,11241
Pieter Holdin,Debra,Omaha,Nebraska,68110
Terry Stoffer,Ridgeview,Shreveport,Louisiana,71161
Saree Dowtry,Westerfield,Detroit,Michigan,48217
Tarra Mapother,Schurz,Bonita Springs,Florida,34135
Keir Gentle,Hollow Ridge,Washington,District of Columbia,20436
Tonye Thornley,Emmet,Denver,Colorado,80255
Tremayne Berrill,Alpine,Little Rock,Arkansas,72215
Hendrika Paskin,Pepper Wood,Grand Rapids,Michigan,49544
Terri-jo Bedham,Express,Sioux Falls,South Dakota,57105
Kalle O'Lunny,Eliot,Houston,Texas,77055
Cortie Crucetti,Becker,Boston,Massachusetts,02283
Jocelyne Good,Sunbrook,Houston,Texas,77255
Heida Voules,Merrick,Washington,District of Columbia,20404
Gunilla Sleford,Ohio,Saint Paul,Minnesota,55123
Batsheva Duddin,Warbler,Saint Louis,Missouri,63158
Umberto Ajam,Anthes,Washington,District of Columbia,20067
Kalina Bloys,Victoria,Newark,Delaware,19714
Sal Kirley,Ruskin,Seattle,Washington,98140
Mia Ferron,Eagle Crest,Reston,Virginia,20195
Edgard Melin,Saint Paul,San Diego,California,92196
Clerissa Casbon,Grim,Pompano Beach,Florida,33069
Andi Petrello,Ridgeway,Minneapolis,Minnesota,55407
Vince Archbold,Bonner,Chicago,Illinois,60630
Temp Cossington,Moulton,Bronx,New York,10464
Emerson Liddy,Utah,Indianapolis,Indiana,46226
Myrta Greville,Larry,Los Angeles,California,90030
Natale McInally,Buena Vista,New York City,New York,10170
Gaby Morby,Loftsgordon,Washington,District of Columbia,20062
Shaylyn Salamon,Ruskin,Pittsburgh,Pennsylvania,15250
Rivalee Baudou,Anhalt,Lexington,Kentucky,40515
Angeli Britten,Saint Paul,Aurora,Colorado,80044
Urbain Cantu,Mifflin,Houston,Texas,77228
Clint Hodge,Truax,Birmingham,Alabama,35242
Thorndike Libreros,Eastwood,Las Vegas,Nevada,89193
Marney Tolworthy,Dovetail,Austin,Texas,78754
Prudi Witterick,Troy,Lubbock,Texas,79410
Delainey Deaville,New Castle,Philadelphia,Pennsylvania,19136
Gerome Hesse,Lakeland,New Bedford,Massachusetts,02745
Wadsworth Richt,Barnett,Akron,Ohio,44310
David Whatson,Michigan,Aurora,Illinois,60505
Marisa Nockles,Marquette,Albany,Georgia,31704
Carmine Bernasek,Stuart,Chicago,Illinois,60681
Lennard Lukins,Pepper Wood,Portland,Maine,04109
Abbey MacKeller,Eagan,Bloomington,Indiana,47405
Celeste Ellicombe,Eagan,San Antonio,Texas,78225
Joby Wasteney,Eastwood,New Haven,Connecticut,06533
Deck Yatman,Linden,Minneapolis,Minnesota,55487
Morgan Eliassen,Warrior,Albuquerque,New Mexico,87121
Tabina Panichelli,Independence,Maple Plain,Minnesota,55579
Boot Filipovic,Thompson,Louisville,Kentucky,40250
Araldo Ramsted,Parkside,Winston Salem,North Carolina,27150
Jimmy Quincey,Russell,Raleigh,North Carolina,27605
Matt O'Farrell,Coleman,Washington,District of Columbia,20205
Whitney Skeath,Jackson,San Luis Obispo,California,93407
Jeremie Drexel,Claremont,Columbus,Ohio,43220
De witt Prigmore,Jenna,Harrisburg,Pennsylvania,17126
Sidoney Mapletoft,Schurz,Jackson,Tennessee,38308
Farlee Shingles,Clove,Pittsburgh,Pennsylvania,15255
Knox Bursell,Gulseth,Young America,Minnesota,55557
Nicolais Rive,Kensington,New Orleans,Louisiana,70174
Dallis Fiddy,Manufacturers,Syracuse,New York,13251
Mirelle Eldershaw,3rd,Abilene,Texas,79605
Gary Millgate,Lawn,Lincoln,Nebraska,68517
Maximilianus Brendish,Dayton,Lubbock,Texas,79410
Al Dionisi,Toban,Des Moines,Iowa,50362
Alfonse Kerrich,Sutherland,Oklahoma City,Oklahoma,73114
Jeremy Mackriell,8th,Jamaica,New York,11447
Carl Concklin,Lillian,Young America,Minnesota,55551
Hendrick Pembery,Spenser,Apache Junction,Arizona,85219
Jacklin McDonell,Beilfuss,Alexandria,Louisiana,71307
Ailey Bottini,Dakota,Yonkers,New York,10705
Hebert Coombes,Warner,Frederick,Maryland,21705
Royal Perrottet,Killdeer,Schenectady,New York,12325
Joelie Larne,Autumn Leaf,El Paso,Texas,79940
Merrily Bierton,Goodland,Wichita,Kansas,67205
Jobey Scudders,Valley Edge,Canton,Ohio,44705
Eileen Chaplain,Rockefeller,Baton Rouge,Louisiana,70810
Ronda Bassingden,Kensington,Arlington,Texas,76096
Blane Weigh,Menomonie,Pensacola,Florida,32526
Nanice Marten,Dwight,Sioux Falls,South Dakota,57105
Madel Stopp,Dapin,Ridgely,Maryland,21684
Morgen Bounds,Iowa,Saint Louis,Missouri,63180
Vinnie Cohen,Hansons,Lynn,Massachusetts,01905
Annissa Edsall,Merchant,Las Vegas,Nevada,89135
Austina McGuinness,Dottie,Appleton,Wisconsin,54915
Valry Beddon,Stephen,New Orleans,Louisiana,70142
Ricky Bearcock,Heffernan,Memphis,Tennessee,38126
Mathilde Mabey,Twin Pines,Kansas City,Missouri,64153
Leah Usher,Talisman,Salt Lake City,Utah,84120
Beverlee Perri,Arizona,Dallas,Texas,75216
Gabbey Goare,Melrose,Washington,District of Columbia,20520
Tulley De Mico,Victoria,Tampa,Florida,33694
Jayme Branthwaite,Vernon,Minneapolis,Minnesota,55470
Gilbertina Korpal,Twin Pines,White Plains,New York,10606
Corinna Bruins,Prentice,Des Moines,Iowa,50310
Siffre Carpmile,Gulseth,Baltimore,Maryland,21290
Loren Brede,Mallard,Muncie,Indiana,47306
Chandal Orans,Rieder,Juneau,Alaska,99812
Aurea Sherel,1st,Kalamazoo,Michigan,49048
Silvano Drabble,Maple,Austin,Texas,78749
Norman Burnel,Acker,Montgomery,Alabama,36195
Vito Reggio,Hermina,Bridgeport,Connecticut,06606
Morissa Brunstan,Mariners Cove,Washington,District of Columbia,20508
Ania Pond-Jones,Welch,Detroit,Michigan,48242
Ranice Erie,Hanover,Philadelphia,Pennsylvania,19191
Juditha Skentelbery,Briar Crest,Saint Paul,Minnesota,55123
Hilliary Thieme,Holy Cross,Bradenton,Florida,34282
Gladys Ewington,Lerdahl,Memphis,Tennessee,38188
Doyle Epine,Pond,Virginia Beach,Virginia,23454
Kevan Ccomini,Graedel,Milwaukee,Wisconsin,53220
Gianni Manginot,Evergreen,Rochester,New York,14624
Alexandros Cominotti,West,Kalamazoo,Michigan,49006
Timmi Boland,Fordem,Garden Grove,California,92844
Locke Hawton,Dixon,Chicago,Illinois,60624
Janeta Thomasen,Schlimgen,Philadelphia,Pennsylvania,19196
Vincents Oswick,Burning Wood,San Jose,California,95133
Cassy Shord,Fisk,Minneapolis,Minnesota,55470
Beverie Odgers,Scofield,Salt Lake City,Utah,84120
Pavlov Nashe,Waubesa,Alexandria,Louisiana,71307
Hannah Kubas,Doe Crossing,Brooklyn,New York,11205
Reinold Alfonzo,Riverside,Shreveport,Louisiana,71130
Pauletta Kiddey,Washington,Wilkes Barre,Pennsylvania,18768
Merci Havill,Kinsman,Winston Salem,North Carolina,27157
Opalina Farans,Swallow,Pocatello,Idaho,83206
Caryn Westman,Sloan,Jefferson City,Missouri,65105
Min Killingsworth,Evergreen,Charlotte,North Carolina,28247
Zollie Vasilmanov,Dixon,Pasadena,California,91125
Danya Hune,Steensland,Sacramento,California,94207
Bart Bothie,Maryland,Los Angeles,California,90101
Addi Saladine,Judy,Charlotte,North Carolina,28256
Phineas Byers,Dexter,Des Moines,Iowa,50330
Caprice Janaud,Duke,Pompano Beach,Florida,33064
Camella Cummine,Upham,San Jose,California,95138
Dulce Hugett,Hoard,Reading,Pennsylvania,19610
Rolf Earry,Mcbride,Albany,New York,12210
Erika Jayne,Schiller,Los Angeles,California,90045
Pammie Lilleman,Ilene,Bradenton,Florida,34282
Shaine McBay,Susan,Metairie,Louisiana,70033
Aldus Aspinell,Di Loreto,Philadelphia,Pennsylvania,19172
Marybelle Rochewell,Morning,Tacoma,Washington,98442
Susann Shea,Northfield,Pasadena,California,91186
Bastien De Caville,Green Ridge,New York City,New York,10024
Fredrika Espinay,Monica,Los Angeles,California,90055
Liva Downer,Pine View,Daytona Beach,Florida,32128
Trip Luparto,Sundown,Memphis,Tennessee,38197
Evelin Wolford,Clarendon,Minneapolis,Minnesota,55412
Jarrid Clissold,Golf Course,Newark,New Jersey,07188
Lana Brim,Golf View,Minneapolis,Minnesota,55423
Westley Iapico,Drewry,Washington,District of Columbia,20566
Maire Kerman,Fallview,Duluth,Minnesota,55811
Anya Hovy,Donald,Bethesda,Maryland,20892
Cyb Pawelke,Havey,Vancouver,Washington,98682
Oswell Heisler,Hudson,Fargo,North Dakota,58122
Kennith Menichillo,Northport,Green Bay,Wisconsin,54313
Clayton Wiggin,Melby,Tampa,Florida,33661
Anallise Joliffe,Marcy,Fort Wayne,Indiana,46852
Spence Thrussell,Katie,Port Washington,New York,11054
Carine Pavlenkov,Barnett,Washington,District of Columbia,20566
Ted Segrott,Summit,Austin,Texas,78721
Eddie Giamitti,Hoffman,Buffalo,New York,14263
Merle Emerson,Arkansas,Atlanta,Georgia,30343
Simone Dreye,Golf,Lincoln,Nebraska,68510
Say Kunneke,Clyde Gallagher,Abilene,Texas,79699
Perri Keeney,Blue Bill Park,Washington,District of Columbia,20535
Garey Pratchett,Messerschmidt,Amarillo,Texas,79188
Kelly Booth-Jarvis,New Castle,Shawnee Mission,Kansas,66276
Kenny O'Feeney,Derek,Ogden,Utah,84409
Carena Mityashin,Mendota,Washington,District of Columbia,20010
Marja Glyne,Forest Run,Memphis,Tennessee,38114
Raddie Mersh,Debs,Indianapolis,Indiana,46247
Vinni Barns,Corry,New Orleans,Louisiana,70142
Wash Wayper,Commercial,Washington,District of Columbia,20456
Melessa Shillum,Kipling,Charlotte,North Carolina,28278
Shurlocke Cattemull,Anderson,Lees Summit,Missouri,64082
Abby Steagall,Longview,Erie,Pennsylvania,16565
Igor Ormerod,Maple,Washington,District of Columbia,20420
Carmencita Heartfield,Reinke,Morgantown,West Virginia,26505
Trescha Radbourn,Forest Run,Miami,Florida,33158
Consuela Gillio,Buhler,Charlotte,North Carolina,28220
Garner Kinson,Melby,Port Washington,New York,11054
Liuka Bownass,Glacier Hill,Mountain View,California,94042
Karlens McParlin,Carey,Wichita,Kansas,67260
Warden McRoberts,Rieder,Wilmington,Delaware,19892
Jourdan Goulden,Cascade,Pittsburgh,Pennsylvania,15235
Camella Trent,Talisman,Pittsburgh,Pennsylvania,15210
Perla Antonsson,Bonner,Phoenix,Arizona,85099
Lari Stanett,Erie,Los Angeles,California,90020
Gusta Boutellier,Roth,Reno,Nevada,89510
Kristan Figliovanni,Old Shore,Macon,Georgia,31210
Noemi Tunnow,Vahlen,Hattiesburg,Mississippi,39404
Ki Nyssen,Birchwood,Columbia,South Carolina,29215
Brandy Merwood,School,Raleigh,North Carolina,27658
Gun O'Conor,Bobwhite,South Lake Tahoe,California,96154
Wilona Dumbare,Lighthouse Bay,Salem,Oregon,97312
Ronnie Hibling,Maywood,Hayward,California,94544
Walden Clunan,Di Loreto,Monticello,Minnesota,55565
Patrizio Waywell,Luster,Peoria,Illinois,61629
Ezri Reder,Hansons,Seattle,Washington,98166
Cristabel Roly,Columbus,Erie,Pennsylvania,16522
Granthem Mate,Michigan,Charlotte,North Carolina,28263
Cathleen Flecknell,Mitchell,New York City,New York,10079
Celestyn Cutmere,Prairieview,Albany,New York,12222
Christian Cockerell,Florence,El Paso,Texas,79916
Zarla Limbert,Bay,Dallas,Texas,75358
Filbert Cryer,Monica,Sacramento,California,95894
Sherry Hunday,Bellgrove,Miami,Florida,33124
Rafaello Cello,Anthes,Ridgely,Maryland,21684
Irv Lissandri,Toban,Portland,Oregon,97211
Bogart Gilbody,Sundown,Clearwater,Florida,34620
June Ever,Mosinee,Detroit,Michigan,48267
Iggie Harkins,Kropf,Cincinnati,Ohio,45213
Kennan Barracks,David,Fort Lauderdale,Florida,33305
Tris Lough,Sachs,New York City,New York,10004
Graig Parren,Ohio,Columbus,Ohio,43226
Maribelle Torri,Dixon,West Palm Beach,Florida,33416
Verina De Ath,Manufacturers,Pasadena,California,91199
Alessandro Cyster,Reindahl,Charlotte,North Carolina,28278
Thaddeus Davidovic,Manitowish,Pasadena,Texas,77505
Chick Hosburn,Erie,Sterling,Virginia,20167
Emmanuel Dakhov,Old Shore,Los Angeles,California,90025
Hillie Wessing,Nancy,Mobile,Alabama,36605
Nadya Thurborn,Butterfield,Tampa,Florida,33694
Charita Denisard,Arrowood,Jacksonville,Florida,32277
Shepperd Palphramand,Hanover,Minneapolis,Minnesota,55441
Philly Swetland,Evergreen,Washington,District of Columbia,20260
Joe Dyos,Farmco,Lubbock,Texas,79415
Dylan Eadie,Duke,Miami,Florida,33261
Mortimer Beldon,Ilene,Salt Lake City,Utah,84199
Roman Jemmett,Mifflin,Saint Louis,Missouri,63180
Isis Ferreira,Darwin,Youngstown,Ohio,44505
Willie Vequaud,Oriole,Zephyrhills,Florida,33543
Benny Lazer,Grover,Phoenix,Arizona,85020
Pepillo Cristobal,Maywood,Washington,District of Columbia,20099
Errol Allbones,Hagan,Frederick,Maryland,21705
Elsa Darque,Loeprich,College Station,Texas,77844
Luz Cliburn,Badeau,New Orleans,Louisiana,70129
Willie Barford,Golf Course,Los Angeles,California,90035
Zacharie Autin,Texas,Boston,Massachusetts,02109
Avrit Seivwright,Arapahoe,Pittsburgh,Pennsylvania,15250
Marten Ourtic,Northwestern,Pittsburgh,Pennsylvania,15230
Karol Gascar,Corben,Chicago,Illinois,60604
Bride Mardy,Pine View,New York City,New York,10045
Imogene Garfield,Oriole,Huntsville,Alabama,35815
Cati Wewell,Dahle,Charleston,South Carolina,29424
Karine Romanet,Summerview,Sacramento,California,94291
Flore Attride,Golf,San Jose,California,95118
Teri Minto,Redwing,White Plains,New York,10633
Kim Minigo,Dexter,Trenton,New Jersey,08619
Jacenta Chatterton,Dorton,Fort Pierce,Florida,34981
Corette Moye,Mccormick,Gainesville,Florida,32627
Glenden Anten,Montana,Phoenix,Arizona,85099
Riley Petken,Fremont,Jefferson City,Missouri,65105
Christine Soigoux,Delaware,Greenville,South Carolina,29615
Tallie Epsley,Eastwood,Valley Forge,Pennsylvania,19495
Mortie Durtnel,Superior,Montgomery,Alabama,36195
Lucinda Bramich,Graedel,Portsmouth,New Hampshire,00214
Elle Whitley,School,Springfield,Illinois,62794
Roddy Trahair,Dapin,Fort Pierce,Florida,34949
Keely Shiels,Lindbergh,Charleston,South Carolina,29403
Davin Behrendsen,Milwaukee,El Paso,Texas,88584
Zorana MacAlister,Menomonie,Buffalo,New York,14220
Else Peer,Bunker Hill,Washington,District of Columbia,20215
Tracee Urpeth,Lakewood Gardens,Wichita Falls,Texas,76310
Durand McLennan,Mosinee,Newark,Delaware,19725
Ivar Beardsell,Monica,Oklahoma City,Oklahoma,73197
Boot Samsonsen,4th,Saint Louis,Missouri,63167
Roman Bohey,Hermina,Cleveland,Ohio,44130
Lise Duffield,Waxwing,Baltimore,Maryland,21216
Mead Junkison,6th,Hamilton,Ohio,45020
Tricia Gahagan,Pearson,Washington,District of Columbia,20392
Tobe McKyrrelly,Morning,Pittsburgh,Pennsylvania,15215
Linn Gross,Buena Vista,Waterloo,Iowa,50706
Brendis Lesly,Hollow Ridge,Provo,Utah,84605
Milissent Withringten,Knutson,Winston Salem,North Carolina,27157
Enrico Shallcroff,Grasskamp,Omaha,Nebraska,68197
Laurent Sommerscales,Anzinger,Maple Plain,Minnesota,55572
Meyer Giraudy,Summer Ridge,Miami,Florida,33129
Burnard McKag,Dayton,El Paso,Texas,88525
Ikey Nuttey,Milwaukee,Louisville,Kentucky,40210
Fredek Huxley,2nd,Columbus,Ohio,43268
Carlos Claussen,Lukken,Newark,New Jersey,07112
Etienne Riding,Northview,Glendale,California,91205
Ami Gwynne,Gerald,Maple Plain,Minnesota,55579
Joelie Ainscow,6th,College Station,Texas,77844
Bea Jaynes,Vernon,Pittsburgh,Pennsylvania,15255
Carita Dowles,Luster,Pensacola,Florida,32595
Nye MacDonogh,Johnson,Phoenix,Arizona,85035
Fiona Matevushev,Russell,Buffalo,New York,14263
Farlee Hoyland,Sunnyside,Whittier,California,90605
Manny Boarleyson,Towne,New York City,New York,10184
Pierette Renard,Hanover,Lake Worth,Florida,33467
Frederick Venable,Brown,Washington,District of Columbia,20041
Shalna Brydell,Valley Edge,Wilkes Barre,Pennsylvania,18763
Tim Press,Manley,Mountain View,California,94042
Shaina Brundale,Melrose,Santa Cruz,California,95064
Jolie McGlew,Independence,New York City,New York,10079
Dalia Govini,Nelson,Chandler,Arizona,85246
Fernando Struthers,Red Cloud,Richmond,Virginia,23225
Sutherland Lavrinov,Clemons,Omaha,Nebraska,68164
Kimmy Peltz,Brickson Park,Minneapolis,Minnesota,55448
Lyman Holtaway,Sullivan,Pinellas Park,Florida,34665
Rhodie Roizn,Nova,Syracuse,New York,13224
Alma Stephens,Becker,Conroe,Texas,77305
Faith Berthel,Golf,Las Vegas,Nevada,89140
Cherise MacKnockiter,Nelson,South Bend,Indiana,46634
Sher Lamden,Hallows,Charlotte,North Carolina,28230
Mead Meldon,Express,Topeka,Kansas,66642
Melissa Tapson,Lunder,Mobile,Alabama,36641
Ignazio Renihan,Oxford,Dearborn,Michigan,48126
Pat Tilston,Paget,Dallas,Texas,75397
Sherwin Metts,Hagan,Washington,District of Columbia,20016
Terencio MacGown,Declaration,Trenton,New Jersey,08650
Susy Conyers,Graedel,Louisville,Kentucky,40298
Julee Farryan,Utah,Waltham,Massachusetts,02453
Linc Quinnelly,Bunting,Memphis,Tennessee,38114
Ashleigh Mattecot,Kedzie,New York City,New York,10079
Terrill Dulton,Delladonna,Iowa City,Iowa,52245
Vergil Weatherhead,Lakewood Gardens,Boston,Massachusetts,02163
Rosabella McCafferty,Northwestern,Fort Worth,Texas,76147
Hunter Sibbet,Northland,Atlanta,Georgia,30336
Ingelbert Wilcott,Gina,Boston,Massachusetts,02216
Meggie Mellonby,Norway Maple,Los Angeles,California,90005
Lotte Morter,Evergreen,Hartford,Connecticut,06183
Bendite Nancarrow,Logan,Denver,Colorado,80299
Rhianna Heino,Fulton,Grand Rapids,Michigan,49505
Kimbell Ridulfo,Lawn,Dallas,Texas,75379
Magdalen Threadgall,Shasta,El Paso,Texas,79950
Krispin Tittershill,Cardinal,Milwaukee,Wisconsin,53263
Jessamine Larmouth,Hagan,Hartford,Connecticut,06105
Carleton Bourdas,Caliangt,Springfield,Illinois,62718
Letta Huncoot,Fairfield,Pittsburgh,Pennsylvania,15230
Chase Cocker,Bobwhite,Tucson,Arizona,85748
Lemmie Stittle,Farmco,Bridgeport,Connecticut,06673
Freddy Poulston,Hoard,Huntington,West Virginia,25709
Giulia Bolmann,Oxford,Fredericksburg,Virginia,22405
Madelle Kendell,Hoffman,Macon,Georgia,31296
Della Latek,Lukken,San Francisco,California,94169
John Curle,Moose,Memphis,Tennessee,38188
Ilaire Adaway,Northfield,Helena,Montana,59623
Lucienne Ruckledge,Badeau,Salt Lake City,Utah,84145
Lowrance Howley,Fremont,Brooksville,Florida,34605
Sula Morville,Grim,Troy,Michigan,48098
Maurie Martinson,Leroy,Metairie,Louisiana,70033
Stevana Akenhead,Arkansas,Springfield,Illinois,62776
Abel Grogono,Northland,Chicago,Illinois,60686
Beilul De Paoli,Bellgrove,Las Vegas,Nevada,89145
Northrup Lourens,Oxford,Toledo,Ohio,43605
Ruby Bladen,Graceland,Irvine,California,92612
Jacquelyn Jefford,Stuart,Fort Lauderdale,Florida,33336
Valery Jeandillou,Lerdahl,Shawnee Mission,Kansas,66225
Ginelle Dignam,Park Meadow,El Paso,Texas,88514
Keriann Bagguley,Moulton,Mesa,Arizona,85205
Jacquie Duham,Tennessee,Memphis,Tennessee,38109
Aubrey Shoebrook,Forest Dale,Melbourne,Florida,32919
Linea Claus,Mayfield,San Francisco,California,94121
Alastair Rubee,Vermont,Miami,Florida,33164
Alva Charer,Main,Saint Paul,Minnesota,55146
Marcellina Chalder,New Castle,Spokane,Washington,99210
Cherri Carrabot,Graceland,Colorado Springs,Colorado,80915
Adamo Creffeild,Ronald Regan,Minneapolis,Minnesota,55407
Anabella Snailham,Atwood,Trenton,New Jersey,08695
Jeffrey Hise,Starling,San Diego,California,92160
Mona Gatteridge,Golf Course,Manchester,New Hampshire,03105
Zahara Bratcher,Brown,Boulder,Colorado,80310
Krystalle Broke,Dorton,Washington,District of Columbia,20016
Sergei Posselwhite,Merrick,Fairfield,Connecticut,06825
Archibald Siddele,Hauk,Austin,Texas,78769
Antonina Brave,Little Fleur,Philadelphia,Pennsylvania,19104
Klarika Duinbleton,Chive,Washington,District of Columbia,20220
Candace Powter,Dottie,Charleston,South Carolina,29403
Gill Duell,Mockingbird,Orlando,Florida,32830
Werner Malim,Katie,New York City,New York,10165
Ollie Antognoni,Debra,Cleveland,Ohio,44111
Max Hayworth,Butternut,Frankfort,Kentucky,40618
Hubie Besse,Meadow Vale,Modesto,California,95397
Darius Episcopio,Mallory,York,Pennsylvania,17405
Marrilee Purcell,Basil,Augusta,Georgia,30905
Danita Tomley,Fairview,Newark,New Jersey,07112
Sharron Yitshak,Hudson,Spokane,Washington,99205
Leonid Cicccitti,Oakridge,Dallas,Texas,75241
Antonina Marques,Pawling,Denver,Colorado,80241
Lu Crisell,Knutson,Knoxville,Tennessee,37914
Mercy Diffley,Morning,Chesapeake,Virginia,23324
Alyse Geoghegan,Merchant,Monticello,Minnesota,55590
Margalit Curthoys,Thompson,Decatur,Georgia,30089
Maisie Attard,Helena,Madison,Wisconsin,53705
Ram Sebring,Sunnyside,Warren,Michigan,48092
Leonelle Sayre,Coleman,Chicago,Illinois,60681
Delaney Coaten,David,Washington,District of Columbia,20456
Dan Winchcombe,Golf,San Antonio,Texas,78210
Olwen Drogan,Fallview,Cumming,Georgia,30130
Carson Malley,International,Saint Paul,Minnesota,55188
Orsola Durrett,Monument,Pasadena,California,91131
Pattin Shevlane,Straubel,Midland,Texas,79710
Rebeca Carbett,Schmedeman,Washington,District of Columbia,20078
Alvina Hegge,Arapahoe,Fresno,California,93778
Cash Cammish,Commercial,Birmingham,Alabama,35254
Brandise McIsaac,Hauk,Lehigh Acres,Florida,33972
Skippy O'Hagirtie,3rd,Nashville,Tennessee,37210
Cristian McGaughie,Village Green,Jackson,Mississippi,39236
Hillie Fernan,8th,Miami,Florida,33196
Lesley Tiley,Walton,Norfolk,Virginia,23509
Gena Vasiliev,Veith,Knoxville,Tennessee,37924
Bunnie Keating,Dawn,New York City,New York,10014
Phillie Dungay,Ludington,Baltimore,Maryland,21290
Seth Aloway,Forest,Kansas City,Missouri,64153
Reese Molfino,Wayridge,Prescott,Arizona,86305
Kerrill Cominetti,Rieder,Fort Worth,Texas,76134
Loise Pettisall,Blue Bill Park,Virginia Beach,Virginia,23459
Caryl Pinfold,Coolidge,Knoxville,Tennessee,37995
Antonin Pourveer,Kinsman,Spokane,Washington,99215
Nikki Colley,Ridge Oak,Annapolis,Maryland,21405
Dag Denison,Vermont,Arlington,Virginia,22217
Nicky McCart,Longview,Brooklyn,New York,11247
Bunny Chasier,Emmet,Newport News,Virginia,23612
Latia Skillicorn,Mayer,Juneau,Alaska,99812
Elwira Fawdry,Nelson,Pasadena,California,91186
Kiele Antoszczyk,Bay,Oklahoma City,Oklahoma,73152
Lorrie Pickersail,Warbler,Irvine,California,92717
Jenn Clewarth,Corry,Punta Gorda,Florida,33982
Abraham Venning,John Wall,San Diego,California,92110
Adair Infante,Sachtjen,Eugene,Oregon,97405
Mordy Garbott,Blackbird,Temple,Texas,76505
Page Snook,Ridgeway,Washington,District of Columbia,20046
Drona Lehrahan,Bowman,Hartford,Connecticut,06145
Alfonse Josebury,Anniversary,Madison,Wisconsin,53716
Bary Beedle,Waubesa,Colorado Springs,Colorado,80995
Ax Chaperling,Melody,Duluth,Georgia,30096
Fidela Marmion,Arapahoe,Minneapolis,Minnesota,55470
Sisile Goldup,Bartillon,Wilmington,Delaware,19810
Whitaker Gannaway,Mcguire,Seattle,Washington,98127
Karlens Sima,Kipling,Syracuse,New York,13251
Ganny Lassells,Shasta,Louisville,Kentucky,40205
Sileas Thwaites,Mariners Cove,Grand Junction,Colorado,81505
Cristabel Leatham,Londonderry,Memphis,Tennessee,38197
Vince Jobin,Clyde Gallagher,Hattiesburg,Mississippi,39404
Felicity Pendergast,Becker,Phoenix,Arizona,85072
Faydra Maith,Vera,Buffalo,New York,14220
Pascal Hundall,Shopko,Los Angeles,California,90189
Merrel Darey,Florence,Gastonia,North Carolina,28055
Dusty Halligan,Dahle,Midland,Texas,79705
Melisent Keast,Grayhawk,Phoenix,Arizona,85062
Karlen Catherick,Moose,Philadelphia,Pennsylvania,19120
Kenyon Fardo,Forest Dale,Iowa City,Iowa,52245
Clemente Devers,David,Tempe,Arizona,85284
Haskell Lasham,Hoard,Irving,Texas,75062
Zane Bondesen,Eagle Crest,Chicago,Illinois,60641
Javier McMillan,Eggendart,Fort Wayne,Indiana,46857
Basilio Belin,Northport,Grand Rapids,Michigan,49510
Karel Weaving,Katie,Chicago,Illinois,60697
Loralie Mayers,American Ash,Anchorage,Alaska,99512
Mead Rickeard,7th,Washington,District of Columbia,20591
Saidee Clere,Jenna,Fort Worth,Texas,76198
Christian Sancto,Lawn,Memphis,Tennessee,38188
Dennie Larkkem,Gulseth,Killeen,Texas,76544
Latrena Elmhurst,Fairview,Los Angeles,California,90045
Hali McCerery,Delaware,Inglewood,California,90398
Hettie Causier,Ilene,Young America,Minnesota,55573
Chantal Nunnery,Golf View,Spring,Texas,77388
Amber Shanklin,Bayside,Young America,Minnesota,55557
Luigi Flag,New Castle,Kalamazoo,Michigan,49006
Kerry Fawke,Toban,Washington,District of Columbia,20319
Herrick Bushe,Kensington,Sacramento,California,94273
Sancho Slipper,Lerdahl,Salt Lake City,Utah,84152
Aubrette Matuszkiewicz,Schurz,Missoula,Montana,59806
Elyse Redler,Orin,Philadelphia,Pennsylvania,19104
Belva Boldison,Shasta,Arlington,Texas,76096
Lari Rudyard,Milwaukee,Colorado Springs,Colorado,80940
Melodie Quadling,Riverside,Sarasota,Florida,34276
Gaultiero Gammell,Golf,Cincinnati,Ohio,45249
Friederike Huban,3rd,Terre Haute,Indiana,47812
Kirbee Panther,Ruskin,Las Vegas,Nevada,89193
Rice Lawdham,Ilene,Miami,Florida,33261
Odetta Mowles,Independence,Boca Raton,Florida,33487
Mei Shawyers,Lerdahl,Gadsden,Alabama,35905
Ki Clohisey,Sutherland,Albuquerque,New Mexico,87180
Milly Langhorn,Fairfield,San Antonio,Texas,78210
Bertine Barday,Superior,Detroit,Michigan,48242
Iago Brooke,Donald,El Paso,Texas,79977
Beckie Murrow,Golden Leaf,Los Angeles,California,90189
Burnard Roscoe,Almo,Pomona,California,91797
Nicoline Arington,West,Rochester,New York,14624
Janene Guiet,Scoville,Santa Barbara,California,93150
Jessie Garric,Jenifer,Fort Lauderdale,Florida,33305
Rooney Whimpenny,Fairview,Berkeley,California,94705
Barbara-anne O'Monahan,Ronald Regan,Rockville,Maryland,20851
Roma Stening,Walton,Portland,Oregon,97206
Isaak Ferraro,Schmedeman,Mobile,Alabama,36628
Clive Cauthra,Duke,North Hollywood,California,91606
Van Hazael,Vernon,Miami,Florida,33153
Brigit Pietroni,Marcy,Sterling,Virginia,20167
Ernst O'Lynn,Mitchell,Denton,Texas,76210
Glenna Tuke,Blaine,Norfolk,Virginia,23551
Perrine Warlton,Starling,Houston,Texas,77234
Gretta Carlon,Huxley,Whittier,California,90605
Gertrudis Kibbye,Prentice,Tulsa,Oklahoma,74156
Randall Isabell,Spaight,Phoenix,Arizona,85030
Kalila Flockhart,Londonderry,Bozeman,Montana,59771
Zonda Birkby,Surrey,Tampa,Florida,33625
Tim Pithcock,Rockefeller,Albuquerque,New Mexico,87115
Lian Welden,Rutledge,Birmingham,Alabama,35290
Claybourne McCormick,Fair Oaks,Saginaw,Michigan,48604
Duke Morter,Ohio,Shreveport,Louisiana,71151
Marcia Esseby,Elmside,Charlotte,North Carolina,28225
Dame Wile,Namekagon,Kansas City,Missouri,64190
Sydelle Zieme,Armistice,New Orleans,Louisiana,70179
Aridatha Jedrzejewicz,Hermina,Indianapolis,Indiana,46202
Karine Pietsma,7th,Albany,New York,12222
Llywellyn Blethyn,Sherman,Colorado Springs,Colorado,80945
Kevan Medhurst,Hallows,Paterson,New Jersey,07505
Brade Dunkerley,Summer Ridge,Richmond,Virginia,23228
Marijo Geraldini,Kensington,Milwaukee,Wisconsin,53277
Myrtle Staden,Pennsylvania,Roanoke,Virginia,24020
Sayers Macy,Summerview,Brockton,Massachusetts,02405
Hart Antoney,Roth,Washington,District of Columbia,20029
Cirillo Magowan,Ilene,Columbus,Georgia,31998
Elwyn Diver,Messerschmidt,Portland,Oregon,97232
Elia Hawk,Gerald,Memphis,Tennessee,38181
Benny Ciciura,Browning,Miami,Florida,33111
Nobie Girdlestone,Dottie,Burbank,California,91505
Allis Eliasen,Bunting,Washington,District of Columbia,20508
Barbey Codi,Farragut,Farmington,Michigan,48335
Anatole Clues,Lighthouse Bay,Olympia,Washington,98506
Stanleigh Bedinn,Briar Crest,Conroe,Texas,77305
Vernor Parnby,Di Loreto,San Jose,California,95108
Emery Byng,Graedel,San Jose,California,95123
Corbett Hinckes,Independence,Glendale,Arizona,85311
Reinaldos Dunning,Reindahl,Aiken,South Carolina,29805
Kennie Bullivant,Kedzie,Alexandria,Virginia,22301
Abie Marguerite,Green,San Antonio,Texas,78250
Dre Wilkisson,Helena,Houston,Texas,77276
Jephthah Wrigglesworth,Southridge,Baton Rouge,Louisiana,70836
Cathi Tilney,Bunker Hill,New Haven,Connecticut,06510
Anita Shillinglaw,Schurz,Lexington,Kentucky,40591
Aurilia Farquharson,5th,Stockton,California,95298
Eben Brezlaw,Melby,Birmingham,Alabama,35290
Morrie Grzegorecki,Dexter,Stamford,Connecticut,06912
Tan Moquin,Tony,Tucson,Arizona,85710
Kessia Pietrusiak,Fulton,Lafayette,Louisiana,70593
Duane Brownsmith,Dennis,Winston Salem,North Carolina,27116
Cyrillus Mersey,International,Columbus,Ohio,43231
Englebert Lanyon,Anhalt,Fort Lauderdale,Florida,33310
Gib Grayshan,Browning,Salt Lake City,Utah,84170
Olav Picardo,Heffernan,Palatine,Illinois,60078
Wheeler Ceillier,Nobel,Arlington,Texas,76016
Redd Shewon,Meadow Vale,Humble,Texas,77346
Lonny Kunc,Briar Crest,Chicago,Illinois,60624
Adele Sibley,Charing Cross,Houston,Texas,77065
Austin Joscelin,Kim,Buffalo,New York,14233
Geneva Cockshott,Haas,San Jose,California,95194
Adina Revey,Starling,Phoenix,Arizona,85015
Janis Lages,Carioca,El Paso,Texas,88579
Maynord Guslon,Burning Wood,Philadelphia,Pennsylvania,19109
Milt Costock,Loeprich,Montgomery,Alabama,36125
Merilee Eacott,Lighthouse Bay,Trenton,New Jersey,08638
Jeremias Cardenas,Weeping Birch,Glendale,Arizona,85305
Britta Le Claire,Arizona,Fullerton,California,92640
Olva Yorke,Crownhardt,San Diego,California,92137
Jervis Koche,Division,Oklahoma City,Oklahoma,73119
Pall Artingstall,Cambridge,Pittsburgh,Pennsylvania,15255
Koenraad Shyre,Roth,Pittsburgh,Pennsylvania,15225
Cecil Yeudall,Birchwood,Charleston,West Virginia,25313
Edik Peel,Caliangt,Flint,Michigan,48555
